ONEWEB-0063             
1 45448U 20020AA  24002.61055523  .00000491  00000+0  13484-2 0  9999
2 45448  87.8955 199.2434 0001250  77.3355 282.7912 13.11416615185182
ONEWEB-0019             
1 45449U 20020AB  24002.58456591 -.00000278  00000+0 -81913-3 0  9994
2 45449  87.8963 199.2448 0001663  82.2064 277.9253 13.11417535185026
ONEWEB-0094             
1 45450U 20020AC  24002.80319598  .00000079  00000+0  16961-3 0  9994
2 45450  87.9173 184.0750 0001488  93.0370 267.0932 13.17649115188265
ONEWEB-0087             
1 45451U 20020AD  24002.61704501  .00000226  00000+0  60191-3 0  9994
2 45451  87.8949 199.2225 0001203 101.6885 258.4378 13.11415855185073
ONEWEB-0082             
1 45452U 20020AE  24002.61866879  .00000269  00000+0  72359-3 0  9998
2 45452  87.8965 199.2170 0001529  90.6796 269.4507 13.11415024185164
ONEWEB-0050             
1 45453U 20020AF  24002.69657991  .00004899  00000+0  38509-3 0  9992
2 45453  87.9991  70.4879 0021417 310.7266  49.2107 15.00504437206809
ONEWEB-0034             
1 45454U 20020AG  24002.63813924 -.00000375  00000+0 -10938-2 0  9999
2 45454  87.8966 199.2306 0001410  92.4954 267.6335 13.11415467185095
ONEWEB-0060             
1 45455U 20020AH  24002.56995637 -.00000532  00000+0 -15357-2 0  9999
2 45455  87.8960 199.2404 0001301  90.5575 269.5702 13.11416717185038
